[{"OBJECT_NAME":"STARLINK-36340","OBJECT_ID":"2026-050X","EPOCH":"2026-03-19T13:34:08.257440","MEAN_MOTION":16.00370058,"ECCENTRICITY":8.84e-5,"INCLINATION":53.1619,"RA_OF_ASC_NODE":232.5131,"ARG_OF_PERICENTER":330.3319,"MEAN_ANOMALY":29.7662,"EPHEMERIS_TYPE":0,"CLASSIFICATION_TYPE":"U","NORAD_CAT_ID":68188,"ELEMENT_SET_NO":999,"REV_AT_EPOCH":193,"BSTAR":-0.0012834,"MEAN_MOTION_DOT":-0.00691967,"MEAN_MOTION_DDOT":0.0001722},{"OBJECT_NAME":"STARLINK-36305","OBJECT_ID":"2026-050Y","EPOCH":"2026-03-19T13:33:49.347072","MEAN_MOTION":16.00507461,"ECCENTRICITY":6.64e-5,"INCLINATION":53.1619,"RA_OF_ASC_NODE":232.5118,"ARG_OF_PERICENTER":330.0991,"MEAN_ANOMALY":30.0002,"EPHEMERIS_TYPE":0,"CLASSIFICATION_TYPE":"U","NORAD_CAT_ID":68189,"ELEMENT_SET_NO":999,"REV_AT_EPOCH":193,"BSTAR":-0.0012521,"MEAN_MOTION_DOT":-0.00680572,"MEAN_MOTION_DDOT":0.00016745},{"OBJECT_NAME":"STARLINK-37071","OBJECT_ID":"2026-050Z","EPOCH":"2026-03-19T13:33:09.686880","MEAN_MOTION":16.00795573,"ECCENTRICITY":7.87e-5,"INCLINATION":53.162,"RA_OF_ASC_NODE":232.5085,"ARG_OF_PERICENTER":120.8561,"MEAN_ANOMALY":239.2548,"EPHEMERIS_TYPE":0,"CLASSIFICATION_TYPE":"U","NORAD_CAT_ID":68190,"ELEMENT_SET_NO":999,"REV_AT_EPOCH":203,"BSTAR":-0.001241,"MEAN_MOTION_DOT":-0.00685813,"MEAN_MOTION_DDOT":0.00017028},{"OBJECT_NAME":"STARLINK-37091","OBJECT_ID":"2026-050AA","EPOCH":"2026-03-19T13:32:49.437312","MEAN_MOTION":16.00938134,"ECCENTRICITY":7.18e-5,"INCLINATION":53.1618,"RA_OF_ASC_NODE":232.5067,"ARG_OF_PERICENTER":334.018,"MEAN_ANOMALY":26.0815,"EPHEMERIS_TYPE":0,"CLASSIFICATION_TYPE":"U","NORAD_CAT_ID":68191,"ELEMENT_SET_NO":999,"REV_AT_EPOCH":203,"BSTAR":-0.0011877,"MEAN_MOTION_DOT":-0.00661998,"MEAN_MOTION_DDOT":0.00016019},{"OBJECT_NAME":"STARLINK-37098","OBJECT_ID":"2026-050AB","EPOCH":"2026-03-19T13:32:29.433984","MEAN_MOTION":16.01069674,"ECCENTRICITY":6.47e-5,"INCLINATION":53.1618,"RA_OF_ASC_NODE":232.5054,"ARG_OF_PERICENTER":327.3796,"MEAN_ANOMALY":32.7195,"EPHEMERIS_TYPE":0,"CLASSIFICATION_TYPE":"U","NORAD_CAT_ID":68192,"ELEMENT_SET_NO":999,"REV_AT_EPOCH":203,"BSTAR":-0.0012086,"MEAN_MOTION_DOT":-0.00678632,"MEAN_MOTION_DDOT":0.00016763},{"OBJECT_NAME":"STARLINK-37090","OBJECT_ID":"2026-050AC","EPOCH":"2026-03-19T13:31:47.877312","MEAN_MOTION":16.01369308,"ECCENTRICITY":7.11e-5,"INCLINATION":53.1621,"RA_OF_ASC_NODE":232.5012,"ARG_OF_PERICENTER":333.6069,"MEAN_ANOMALY":26.4927,"EPHEMERIS_TYPE":0,"CLASSIFICATION_TYPE":"U","NORAD_CAT_ID":68193,"ELEMENT_SET_NO":999,"REV_AT_EPOCH":203,"BSTAR":-0.0011396,"MEAN_MOTION_DOT":-0.00651387,"MEAN_MOTION_DDOT":0.00015641},{"OBJECT_NAME":"STARLINK-37093","OBJECT_ID":"2026-050AD","EPOCH":"2026-03-19T13:33:27.860256","MEAN_MOTION":16.00670231,"ECCENTRICITY":0.0001079,"INCLINATION":53.1623,"RA_OF_ASC_NODE":232.5098,"ARG_OF_PERICENTER":125.0257,"MEAN_ANOMALY":235.0876,"EPHEMERIS_TYPE":0,"CLASSIFICATION_TYPE":"U","NORAD_CAT_ID":68194,"ELEMENT_SET_NO":999,"REV_AT_EPOCH":203,"BSTAR":-0.0012185,"MEAN_MOTION_DOT":-0.00668674,"MEAN_MOTION_DDOT":0.00016258},{"OBJECT_NAME":"STARLINK-37058","OBJECT_ID":"2026-050AE","EPOCH":"2026-03-19T07:32:38.613984","MEAN_MOTION":16.02049525,"ECCENTRICITY":0.0002524,"INCLINATION":53.1616,"RA_OF_ASC_NODE":233.7917,"ARG_OF_PERICENTER":340.0442,"MEAN_ANOMALY":20.049,"EPHEMERIS_TYPE":0,"CLASSIFICATION_TYPE":"U","NORAD_CAT_ID":68195,"ELEMENT_SET_NO":999,"REV_AT_EPOCH":43,"BSTAR":-0.0012605,"MEAN_MOTION_DOT":-0.00749084,"MEAN_MOTION_DDOT":0.00020203},{"OBJECT_NAME":"YAOGAN-50 02","OBJECT_ID":"2026-051A","EPOCH":"2026-03-20T00:00:02.495232","MEAN_MOTION":14.02354822,"ECCENTRICITY":0.00855894,"INCLINATION":141.9942,"RA_OF_ASC_NODE":256.6193,"ARG_OF_PERICENTER":153.1893,"MEAN_ANOMALY":207.328,"EPHEMERIS_TYPE":0,"CLASSIFICATION_TYPE":"U","NORAD_CAT_ID":68196,"ELEMENT_SET_NO":999,"REV_AT_EPOCH":63,"BSTAR":2.823449e-5,"MEAN_MOTION_DOT":2.41e-6,"MEAN_MOTION_DDOT":0},{"OBJECT_NAME":"CZ-6A R/B","OBJECT_ID":"2026-051B","EPOCH":"2026-03-21T08:55:30.895104","MEAN_MOTION":14.56362782,"ECCENTRICITY":0.01857802,"INCLINATION":142.0316,"RA_OF_ASC_NODE":265.8125,"ARG_OF_PERICENTER":134.2387,"MEAN_ANOMALY":227.3755,"EPHEMERIS_TYPE":0,"CLASSIFICATION_TYPE":"U","NORAD_CAT_ID":68197,"ELEMENT_SET_NO":999,"REV_AT_EPOCH":86,"BSTAR":0.00022917322,"MEAN_MOTION_DOT":1.609e-5,"MEAN_MOTION_DDOT":0},{"OBJECT_NAME":"2026-052A","OBJECT_ID":"2026-052A","EPOCH":"2026-03-21T12:28:24.254688","MEAN_MOTION":15.09859768,"ECCENTRICITY":0.00123964,"INCLINATION":97.5374,"RA_OF_ASC_NODE":156.6853,"ARG_OF_PERICENTER":245.1193,"MEAN_ANOMALY":114.8748,"EPHEMERIS_TYPE":0,"CLASSIFICATION_TYPE":"U","NORAD_CAT_ID":68198,"ELEMENT_SET_NO":999,"REV_AT_EPOCH":81,"BSTAR":0.00053598134,"MEAN_MOTION_DOT":8.631e-5,"MEAN_MOTION_DDOT":0},{"OBJECT_NAME":"YUXING-3 06","OBJECT_ID":"2026-052B","EPOCH":"2026-03-21T17:13:51.667968","MEAN_MOTION":15.10007687,"ECCENTRICITY":0.0011567,"INCLINATION":97.5376,"RA_OF_ASC_NODE":156.8811,"ARG_OF_PERICENTER":245.8564,"MEAN_ANOMALY":114.1456,"EPHEMERIS_TYPE":0,"CLASSIFICATION_TYPE":"U","NORAD_CAT_ID":68199,"ELEMENT_SET_NO":999,"REV_AT_EPOCH":84,"BSTAR":0.00029287,"MEAN_MOTION_DOT":4.703e-5,"MEAN_MOTION_DDOT":0},{"OBJECT_NAME":"2026-052C","OBJECT_ID":"2026-052C","EPOCH":"2026-03-21T14:02:19.074336","MEAN_MOTION":15.1014102,"ECCENTRICITY":0.00112635,"INCLINATION":97.5376,"RA_OF_ASC_NODE":156.7523,"ARG_OF_PERICENTER":248.959,"MEAN_ANOMALY":111.0435,"EPHEMERIS_TYPE":0,"CLASSIFICATION_TYPE":"U","NORAD_CAT_ID":68200,"ELEMENT_SET_NO":999,"REV_AT_EPOCH":81,"BSTAR":0.00036928225,"MEAN_MOTION_DOT":5.969e-5,"MEAN_MOTION_DDOT":0},{"OBJECT_NAME":"2026-052D","OBJECT_ID":"2026-052D","EPOCH":"2026-03-21T12:26:09.385152","MEAN_MOTION":15.10304782,"ECCENTRICITY":0.0010415,"INCLINATION":97.5376,"RA_OF_ASC_NODE":156.685,"ARG_OF_PERICENTER":245.0906,"MEAN_ANOMALY":114.9242,"EPHEMERIS_TYPE":0,"CLASSIFICATION_TYPE":"U","NORAD_CAT_ID":68201,"ELEMENT_SET_NO":999,"REV_AT_EPOCH":81,"BSTAR":0.00057941464,"MEAN_MOTION_DOT":9.447e-5,"MEAN_MOTION_DDOT":0},{"OBJECT_NAME":"2026-052E","OBJECT_ID":"2026-052E","EPOCH":"2026-03-21T12:26:08.151360","MEAN_MOTION":15.10303568,"ECCENTRICITY":0.00103504,"INCLINATION":97.5375,"RA_OF_ASC_NODE":156.6857,"ARG_OF_PERICENTER":250.173,"MEAN_ANOMALY":109.8384,"EPHEMERIS_TYPE":0,"CLASSIFICATION_TYPE":"U","NORAD_CAT_ID":68202,"ELEMENT_SET_NO":999,"REV_AT_EPOCH":81,"BSTAR":0.00042309177,"MEAN_MOTION_DOT":6.878e-5,"MEAN_MOTION_DDOT":0},{"OBJECT_NAME":"2026-052F","OBJECT_ID":"2026-052F","EPOCH":"2026-03-21T14:00:15.364224","MEAN_MOTION":15.10561346,"ECCENTRICITY":0.00095763,"INCLINATION":97.5368,"RA_OF_ASC_NODE":156.7581,"ARG_OF_PERICENTER":241.0714,"MEAN_ANOMALY":118.9555,"EPHEMERIS_TYPE":0,"CLASSIFICATION_TYPE":"U","NORAD_CAT_ID":68203,"ELEMENT_SET_NO":999,"REV_AT_EPOCH":82,"BSTAR":0.00060449038,"MEAN_MOTION_DOT":9.927e-5,"MEAN_MOTION_DDOT":0}]
